BEIDOU 7                
1 37256U 10068A   20227.40723532 -.00000194  00000-0  00000-0 0  9992
2 37256  51.3836 297.6514 0082289 213.0445  76.6748  1.00295406 35411
EUTELSAT KA-SAT 9A      
1 37258U 10069A   20227.23938326  .00000063  00000-0  00000-0 0  9999
2 37258   0.0252 300.6873 0005033 148.4299 329.1260  1.00271956 22627
HISPASAT 30W-5          
1 37264U 10070A   20227.40626438 -.00000215  00000-0  00000-0 0  9995
2 37264   0.0132 132.2971 0005677  18.9620 288.2895  1.00272815 31794
KOREASAT 6              
1 37265U 10070B   20227.50709635 -.00000361  00000-0  00000-0 0  9990
2 37265   0.0161  92.6100 0001276  89.0614  80.2345  1.00269526 35387
BEIDOU 8                
1 37384U 11013A   20227.43599909 -.00000162  00000-0  10000-3 0  9996
2 37384  59.3504  61.0066 0049661 201.1223 335.7733  1.00290211 34294
INTELSAT NEW DAWN       
1 37392U 11016A   20227.49052153  .00000156  00000-0  00000-0 0  9997
2 37392   0.0335 228.5120 0000344 140.3053 163.8999  1.00272060 31922
YAHSAT 1A               
1 37393U 11016B   20227.49453438  .00000101  00000-0  00000-0 0  9999
2 37393   0.0298 100.4499 0002029  10.4449  83.0188  1.00273922 21027
SBIRS GEO-1 (USA 230)   
1 37481U 11019A   20227.49723869 -.00000004  00000-0  00000-0 0  9991
2 37481   2.0029 345.8617 0002399 155.1550  67.5466  1.00272315 34043
TELSTAR 14R             
1 37602U 11021A   20227.47141686 -.00000279  00000-0  00000-0 0  9992
2 37602   0.0557 287.5194 0001542 177.1767 325.3508  1.00272271 34433
GSAT-8                  
1 37605U 11022A   20227.20781998  .00000086  00000-0  00000-0 0  9998
2 37605   0.0247 108.5514 0003360 143.3595 201.0395  1.00272280 31828
ST-2                    
1 37606U 11022B   20227.43365455 -.00000210  00000-0  00000+0 0  9999
2 37606   0.0239 110.5168 0001347  59.8096  37.0806  1.00271985 33869
CHINASAT 10 (ZX 10)     
1 37677U 11026A   20227.50604951 -.00000351  00000-0  00000-0 0  9993
2 37677   0.0886 266.5610 0004725 267.6447  81.8632  1.00269694 33599
TIANLIAN 1-02           
1 37737U 11032A   20225.86704373 -.00000017  00000-0  00000-0 0  9992
2 37737   2.8482  75.1026 0015522  92.2802 277.4388  1.00272025 33321
GSAT-12                 
1 37746U 11034A   20227.43382814 -.00000164  00000-0  00000-0 0  9994
2 37746   0.1361 277.8200 0009869 178.6271 106.0340  1.00272368 22119
SES-3                   
1 37748U 11035A   20227.51471170 -.00000101  00000-0  00000-0 0  9991
2 37748   0.0553 290.2184 0002666 217.1134 258.3518  1.00271774 33220
KAZSAT-2                
1 37749U 11035B   20227.43382814 -.00000197  00000-0  00000-0 0  9994
2 37749   0.0225 166.7785 0001605  36.5976   2.6169  1.00273486 32009
BEIDOU 9                
1 37763U 11038A   20227.35933146 -.00000061  00000-0  10000-3 0  9998
2 37763  54.4538 184.8458 0074193 225.7142 137.4976  1.00282435 33268
ASTRA 1N                
1 37775U 11041A   20227.40396584  .00000120  00000-0  00000-0 0  9991
2 37775   0.0382  19.0637 0003590  70.6580  38.1883  1.00268418 23144
BSAT-3C (JCSAT-110R)    
1 37776U 11041B   20227.57286618 -.00000350  00000-0  00000-0 0  9992
2 37776   0.0351 269.8084 0000598   0.4622   9.3519  1.00271112 29108
PAKSAT-1R               
1 37779U 11042A   20227.49156837  .00000155  00000-0  00000-0 0  9998
2 37779   0.0189 164.3300 0003749 296.0167  77.9514  1.00269779 33093
CHINASAT 1A (ZX 1A)     
1 37804U 19001A   20225.93072597 -.00000336  00000-0  00000-0 0  9999
2 37804   0.0658 276.7957 0000766 339.0052 170.9400  1.00273552 32671
COSMOS 2473             
1 37806U 11048A   20227.40949211 -.00000110  00000-0  00000-0 0  9994
2 37806   0.1858 101.3977 0003648  39.1771 316.2532  1.00269525 32686
SES-2                   
1 37809U 11049A   20227.45866836 -.00000195  00000-0  00000-0 0  9997
2 37809   0.0560 280.1423 0002757 227.6682 253.6383  1.00272994 32610
ARABSAT-5C              
1 37810U 11049B   20227.40396584  .00000124  00000-0  00000-0 0  9993
2 37810   0.0611   2.8257 0005026 155.9282 329.9500  1.00269608 32676
EUTELSAT 7 WEST A       
1 37816U 11051A   20227.41080066 -.00000059  00000-0  00000-0 0  9996
2 37816   0.0625  29.3990 0007127 134.4095 300.0680  1.00271756 32512
QUETZSAT 1              
1 37826U 11054A   20227.46361616 -.00000240  00000-0  00000-0 0  9990
2 37826   0.0115  55.0628 0002888  97.7723 260.3964  1.00270909 28505
INTELSAT 18 (IS-18)     
1 37834U 11056A   20227.55230468  .00000054  00000-0  00000-0 0  9993
2 37834   0.0143 101.0271 0001859  50.9113 190.3156  1.00271869 32542
EUTELSAT 16A            
1 37836U 11057A   20227.34362899  .00000105  00000-0  00000-0 0  9994
2 37836   0.0668   4.8255 0005105 136.1662 321.9359  1.00269378 24609
VIASAT-1                
1 37843U 11059A   20227.24575031 -.00000022  00000-0  00000-0 0  9996
2 37843   0.0162 107.6141 0002197  40.9421 147.9291  1.00272216 25938
ASIASAT 7               
1 37933U 11069A   20227.50508992 -.00000334  00000-0  00000-0 0  9994
2 37933   0.0416 268.7299 0001604 208.4721 133.5010  1.00274890 23476
BEIDOU 10               
1 37948U 11073A   20226.46232189 -.00000141  00000-0  10000-3 0  9991
2 37948  51.4797 297.2580 0070559 213.6897  73.5075  1.00282974 32006
LUCH 5A                 
1 37951U 11074B   20227.63443538 -.00000048  00000-0  00000-0 0  9990
2 37951   3.3907 113.2718 0003999  15.7724 229.9243  1.00269744 31804
NIGCOMSAT 1R            
1 38014U 11077A   20227.49252795  .00000146  00000-0  00000-0 0  9999
2 38014   0.0439 278.1514 0002449 212.3237  52.7029  1.00269597 31571
FENGYUN 2F              
1 38049U 12002A   20225.02946187 -.00000357  00000-0  00000+0 0  9992
2 38049   2.1882  83.4346 0000899  57.0014 303.2140  1.00279976 31488
WGS F4 (USA 233)        
1 38070U 12003A   20226.70257728 -.00000213  00000-0  00000-0 0  9991
2 38070   0.0138 114.9519 0000366 113.1946  75.7670  1.00270939 22751
SES-4                   
1 38087U 12007A   20227.40783463 -.00000167  00000-0  00000-0 0  9999
2 38087   0.0146  51.6372 0002509  89.4335 307.0284  1.00271516 30865
BEIDOU 11               
1 38091U 12008A   20225.70112090  .00000058  00000-0  00000-0 0  9996
2 38091   1.5943  68.3331 0001606 291.9320 272.4573  1.00269117 31076
MUOS-1                  
1 38093U 12009A   20227.52251838 -.00000125  00000-0  00000-0 0  9991
2 38093   2.5299   9.6787 0051527   2.7882  39.0571  1.00271480 31064
INTELSAT 22 (IS-22)     
1 38098U 12011A   20227.49837275 -.00000058  00000-0  00000-0 0  9995
2 38098   0.0168  93.4398 0002552  64.5361  56.8884  1.00273289 30431
APSTAR 7                
1 38107U 12013A   20227.64800933 -.00000101  00000-0  00000-0 0  9995
2 38107   0.0081 145.6311 0002243   6.8583 120.8155  1.00272318 30786
YAHSAT 1B               
1 38245U 12016A   20227.49348755  .00000127  00000-0  00000-0 0  9990
2 38245   0.0177 106.8342 0001666  21.7944  59.9933  1.00272624 24210
AEHF-2 (USA 235)        
1 38254U 12019A   20227.48272057 -.00000274  00000-0  00000-0 0  9997
2 38254   2.0933  48.7768 0006924  70.8471 309.8787  1.00267242 29477
JCSAT-13                
1 38331U 12023A   20227.43695868 -.00000355  00000-0  00000-0 0  9992
2 38331   0.0151 121.5688 0002128  20.9236 102.1155  1.00272620 30146
VINASAT-2               
1 38332U 12023B   20227.43852892 -.00000328  00000-0  00000-0 0  9995
2 38332   0.0636 279.2312 0001904 237.3867  96.3995  1.00270351 25278
NIMIQ 6                 
1 38342U 12026A   20227.45656328 -.00000172  00000-0  00000-0 0  9994
2 38342   0.0612 282.0595 0002449 219.2532 255.2687  1.00271636 29030
CHINASAT 2A (ZX 2A)     
1 38352U 12028A   20227.50360691 -.00000292  00000-0  00000-0 0  9991
2 38352   0.0231 189.9973 0000749 124.3758 288.5778  1.00270818 29996
INTELSAT 19 (IS-19)     
1 38356U 12030A   20227.54072765 -.00000056  00000-0  00000-0 0  9992
2 38356   0.0109 105.4930 0002819  43.5679 175.0122  1.00271584 29077
ECHOSTAR 17             
1 38551U 12035A   20227.51272808 -.00000074  00000-0  00000-0 0  9991
2 38551   0.0159 111.4415 0002014  28.1861 261.2349  1.00271249 29687
METEOSAT-10 (MSG-3)     
1 38552U 12035B   20227.23938326  .00000065  00000-0  00000-0 0  9994
2 38552   1.3617 343.1867 0001419 140.3906 295.1419  1.00270829 29509
SES-5                   
1 38652U 12036A   20227.26965294  .00000035  00000-0  00000-0 0  9990
2 38652   0.0453  94.3251 0001879  51.6545 279.2157  1.00270676 23101
TIANLIAN 1-03           
1 38730U 12040A   20227.55987406  .00000125  00000-0  00000-0 0  9993
2 38730   0.3592 104.3751 0002932 303.1756 137.7631  1.00270162 29608
INTELSAT 20 (IS-20)     
1 38740U 12043A   20227.42271403 -.00000024  00000-0  00000-0 0  9995
2 38740   0.0211 114.1468 0000817  78.0366 351.7774  1.00271637 29360
HYLAS 2                 
1 38741U 12043B   20227.49017258  .00000155  00000-0  00000-0 0  9993
2 38741   0.0500 274.0718 0001583 224.7228  32.0466  1.00270956 29386
INTELSAT 21 (IS-21)     
1 38749U 12045A   20227.47343167 -.00000284  00000-0  00000-0 0  9996
2 38749   0.0130 103.8641 0001918  45.5637 286.3562  1.00272815 29154
ASTRA 2F                
1 38778U 12051A   20227.48964917  .00000151  00000-0  00000-0 0  9990
2 38778   0.1008 252.3329 0003221 303.5909 331.9209  1.00269110 19789
GSAT-10                 
1 38779U 12051B   20227.43382814 -.00000164  00000-0  00000-0 0  9991
2 38779   0.1077 279.8373 0000230  82.9692 199.6814  1.00272047 28732
INTELSAT 23 (IS-23)     
1 38867U 12057A   20227.47627837 -.00000283  00000-0  00000-0 0  9998
2 38867   0.0130 117.4707 0001586  30.0923 294.2557  1.00272810 28614
BEIDOU 16               
1 38953U 12059A   20226.06515656 -.00000175  00000-0  00000-0 0  9995
2 38953   1.2371  84.0324 0006370 272.4825  72.9573  1.00273966 28648
LUCH 5B                 
1 38977U 12061A   20227.40896869 -.00000134  00000-0  00000-0 0  9996
2 38977   5.8642  67.2671 0002997  67.8061 319.1426  1.00274299 28791
